ORBCOMM FM33            
1 25983U 99065D   24341.65485674  .00001967  00000+0  67673-3 0  9999
2 25983  45.0264 193.7108 0008799 168.9893 191.1150 14.39010948308329
ORBCOMM FM36            
1 25984U 99065E   24341.57450540  .00002810  00000+0  98389-3 0  9991
2 25984  45.0393 283.0554 0003843  30.3178 329.7892 14.37123150306704
ORBCOMM FM35            
1 25985U 99065F   24341.56463345  .00002525  00000+0  90408-3 0  9995
2 25985  45.0396 286.7137 0001918 155.9151 204.1787 14.36290663307085
ORBCOMM FM34            
1 25986U 99065G   24341.53584618  .00002693  00000+0  96044-3 0  9998
2 25986  45.0391 287.3843 0002928  73.3310 286.7860 14.36322297307193
ORBCOMM FM38            
1 33060U 08031A   24341.61241417  .00004507  00000+0  62054-3 0  9999
2 33060  48.4384 151.9901 0006004 281.7086  78.3155 14.79734807886217
ORBCOMM FM41            
1 33061U 08031B   24341.64886611  .00004248  00000+0  59138-3 0  9995
2 33061  48.4420 158.9725 0005289 267.2606 179.1309 14.79377398885714
ORBCOMM FM29            
1 33062U 08031C   24341.64066653  .00003696  00000+0  51795-3 0  9999
2 33062  48.4369 167.0028 0006956 268.2818 172.6578 14.79401159885621
ORBCOMM FM39            
1 33063U 08031D   24341.61405936  .00003521  00000+0  50930-3 0  9995
2 33063  48.4382 189.4163 0007855 245.4901 114.5195 14.78153384885290
